start=new Date('2022-09-12T00:00:00.000Z').valueOf();
sats=[{"OBJECT_NAME":"STARLINK-1545","DECAY_DATE":null,"ELEMENT_SET_NO":"999","MEAN_ANOMALY":"294.2378","MEAN_MOTION_DOT":"-0.00001189","MEAN_MOTION":"15.06383187","INCLINATION":"53.0575","BSTAR":"-0.00006099100000","CLASSIFICATION_TYPE":"U","ARG_OF_PERICENTER":"65.8764","FILE":"3568903","NORAD_CAT_ID":"46156","MEAN_ELEMENT_THEORY":"SGP4","PERIOD":"95.593","RCS_SIZE":"LARGE","CENTER_NAME":"EARTH","GP_ID":"212318974","REF_FRAME":"TEME","ECCENTRICITY":"0.00014650","PERIAPSIS":"546.251","MEAN_MOTION_DDOT":"0.0000000000000","SEMIMAJOR_AXIS":"6925.400","EPOCH":"2022-09-11T06:51:59.461632","TLE_LINE1":"1 46156U 20057AR  22254.28610488 -.00001189  00000-0 -60991-4 0  9998","TLE_LINE2":"2 46156  53.0575 262.1329 0001465  65.8764 294.2378 15.06383187115369","TIME_SYSTEM":"UTC","REV_AT_EPOCH":"11536","OBJECT_TYPE":"PAYLOAD","EPHEMERIS_TYPE":"0","APOAPSIS":"548.280","COUNTRY_CODE":"US","LAUNCH_DATE":"2020-08-18","SITE":"AFETR","RA_OF_ASC_NODE":"262.1329","OBJECT_ID":"2020-057AR"},{"LAUNCH_DATE":"2020-08-18","SITE":"AFETR","APOAPSIS":"548.354","COUNTRY_CODE":"US","OBJECT_ID":"2020-057AS","RA_OF_ASC_NODE":"241.9018","TIME_SYSTEM":"UTC","MEAN_MOTION_DDOT":"0.0000000000000","PERIAPSIS":"546.061","SEMIMAJOR_AXIS":"6925.342","EPOCH":"2022-09-11T08:08:56.449536","TLE_LINE1":"1 46157U 20057AS  22254.33954224 -.00000252  00000-0  19634-5 0  9992","TLE_LINE2":"2 46157  53.0545 241.9018 0001656  68.6657 291.4509 15.06402027114405","EPHEMERIS_TYPE":"0","REV_AT_EPOCH":"11440","OBJECT_TYPE":"PAYLOAD","FILE":"3568903","NORAD_CAT_ID":"46157","MEAN_ELEMENT_THEORY":"SGP4","BSTAR":"0.00000196340000","CLASSIFICATION_TYPE":"U","ARG_OF_PERICENTER":"68.6657","GP_ID":"212318724","ECCENTRICITY":"0.00016560","REF_FRAME":"TEME","CENTER_NAME":"EARTH","RCS_SIZE":"LARGE","PERIOD":"95.592","DECAY_DATE":null,"ELEMENT_SET_NO":"999","OBJECT_NAME":"STARLINK-1587","MEAN_MOTION_DOT":"-0.00000252","MEAN_MOTION":"15.06402027","INCLINATION":"53.0545","MEAN_ANOMALY":"291.4509"},{"DECAY_DATE":null,"ELEMENT_SET_NO":"999","OBJECT_NAME":"STARLINK-1589","MEAN_MOTION_DOT":"0.00000200","INCLINATION":"53.0522","MEAN_MOTION":"15.06398452","MEAN_ANOMALY":"286.3741","NORAD_CAT_ID":"46158","FILE":"3569386","MEAN_ELEMENT_THEORY":"SGP4","ARG_OF_PERICENTER":"73.7394","BSTAR":"0.00003231800000","CLASSIFICATION_TYPE":"U","GP_ID":"212360516","REF_FRAME":"TEME","ECCENTRICITY":"0.00013260","RCS_SIZE":"LARGE","PERIOD":"95.592","CENTER_NAME":"EARTH","TIME_SYSTEM":"UTC","PERIAPSIS":"546.300","MEAN_MOTION_DDOT":"0.0000000000000","SEMIMAJOR_AXIS":"6925.353","EPOCH":"2022-09-12T03:10:06.258432","TLE_LINE2":"2 46158  53.0522 238.3401 0001326  73.7394 286.3741 15.06398452115189","TLE_LINE1":"1 46158U 20057AT  22255.13201688  .00000200  00000-0  32318-4 0  9996","EPHEMERIS_TYPE":"0","REV_AT_EPOCH":"11518","OBJECT_TYPE":"PAYLOAD","LAUNCH_DATE":"2020-08-18","SITE":"AFETR","APOAPSIS":"548.137","COUNTRY_CODE":"US","OBJECT_ID":"2020-057AT","RA_OF_ASC_NODE":"238.3401"},{"APOAPSIS":"548.281","COUNTRY_CODE":"US","LAUNCH_DATE":"2020-08-18","SITE":"AFETR","RA_OF_ASC_NODE":"281.4357","OBJECT_ID":"2020-057AU","SEMIMAJOR_AXIS":"6925.356","PERIAPSIS":"546.161","EPOCH":"2022-09-11T10:37:33.361536","MEAN_MOTION_DDOT":"0.0000000000000","TLE_LINE1":"1 46159U 20057AU  22254.44274724 -.00000458  00000-0 -11836-4 0  9990","TLE_LINE2":"2 46159  53.0556 281.4357 0001531  71.5987 288.5168 15.06397564114514","TIME_SYSTEM":"UTC","REV_AT_EPOCH":"11451","OBJECT_TYPE":"PAYLOAD","EPHEMERIS_TYPE":"0","BSTAR":"-0.00001183600000","CLASSIFICATION_TYPE":"U","ARG_OF_PERICENTER":"71.5987","FILE":"3568922","NORAD_CAT_ID":"46159","MEAN_ELEMENT_THEORY":"SGP4","RCS_SIZE":"LARGE","PERIOD":"95.592","CENTER_NAME":"EARTH","GP_ID":"212324918","ECCENTRICITY":"0.00015310","REF_FRAME":"TEME","OBJECT_NAME":"STARLINK-1595","ELEMENT_SET_NO":"999","DECAY_DATE":null,"MEAN_ANOMALY":"288.5168","MEAN_MOTION_DOT":"-0.00000458","MEAN_MOTION":"15.06397564","INCLINATION":"53.0556"},{"BSTAR":"0.00003103500000","ARG_OF_PERICENTER":"68.1729","CLASSIFICATION_TYPE":"U","NORAD_CAT_ID":"46160","FILE":"3568903","MEAN_ELEMENT_THEORY":"SGP4","RCS_SIZE":"LARGE","PERIOD":"95.593","CENTER_NAME":"EARTH","GP_ID":"212318474","ECCENTRICITY":"0.00013400","REF_FRAME":"TEME","OBJECT_NAME":"STARLINK-1598","ELEMENT_SET_NO":"999","DECAY_DATE":null,"MEAN_ANOMALY":"291.9403","MEAN_MOTION_DOT":"0.00000181","INCLINATION":"53.0543","MEAN_MOTION":"15.06393904","APOAPSIS":"548.160","COUNTRY_CODE":"US","LAUNCH_DATE":"2020-08-18","SITE":"AFETR","RA_OF_ASC_NODE":"261.4627","OBJECT_ID":"2020-057AV","PERIAPSIS":"546.304","MEAN_MOTION_DDOT":"0.0000000000000","SEMIMAJOR_AXIS":"6925.367","EPOCH":"2022-09-11T10:24:17.235648","TLE_LINE2":"2 46160  53.0543 261.4627 0001340  68.1729 291.9403 15.06393904115384","TLE_LINE1":"1 46160U 20057AV  22254.43353282  .00000181  00000-0  31035-4 0  9992","TIME_SYSTEM":"UTC","REV_AT_EPOCH":"11538","OBJECT_TYPE":"PAYLOAD","EPHEMERIS_TYPE":"0"},{"ECCENTRICITY":"0.00013810","GP_ID":"212360340","REF_FRAME":"TEME","PERIOD":"95.591","RCS_SIZE":"LARGE","CENTER_NAME":"EARTH","NORAD_CAT_ID":"46161","FILE":"3569390","MEAN_ELEMENT_THEORY":"SGP4","BSTAR":"0.00025607000000","CLASSIFICATION_TYPE":"U","ARG_OF_PERICENTER":"80.5711","MEAN_MOTION_DOT":"0.00003536","INCLINATION":"53.0534","MEAN_MOTION":"15.06411774","MEAN_ANOMALY":"279.5434","ELEMENT_SET_NO":"999","DECAY_DATE":null,"OBJECT_NAME":"STARLINK-1600","OBJECT_ID":"2020-057AW","RA_OF_ASC_NODE":"258.8786","LAUNCH_DATE":"2020-08-18","SITE":"AFETR","APOAPSIS":"548.134","COUNTRY_CODE":"US","EPHEMERIS_TYPE":"0","REV_AT_EPOCH":"11488","OBJECT_TYPE":"PAYLOAD","TIME_SYSTEM":"UTC","PERIAPSIS":"546.221","SEMIMAJOR_AXIS":"6925.312","EPOCH":"2022-09-12T00:12:17.004096","MEAN_MOTION_DDOT":"0.0000000000000","TLE_LINE1":"1 46161U 20057AW  22255.00853014  .00003536  00000-0  25607-3 0  9999","TLE_LINE2":"2 46161  53.0534 258.8786 0001381  80.5711 279.5434 15.06411774114881"},{"MEAN_ANOMALY":"284.5322","INCLINATION":"53.0541","MEAN_MOTION":"15.06393965","MEAN_MOTION_DOT":"0.00000303","OBJECT_NAME":"STARLINK-1603","ELEMENT_SET_NO":"999","DECAY_DATE":null,"RCS_SIZE":"LARGE","PERIOD":"95.593","CENTER_NAME":"EARTH","GP_ID":"212324957","REF_FRAME":"TEME","ECCENTRICITY":"0.00013260","ARG_OF_PERICENTER":"75.5814","BSTAR":"0.00003926600000","CLASSIFICATION_TYPE":"U","MEAN_ELEMENT_THEORY":"SGP4","NORAD_CAT_ID":"46162","FILE":"3568924","OBJECT_TYPE":"PAYLOAD","REV_AT_EPOCH":"11480","EPHEMERIS_TYPE":"0","TLE_LINE1":"1 46162U 20057AX  22254.41510943  .00000303  00000-0  39266-4 0  9991","TLE_LINE2":"2 46162  53.0541 261.5629 0001326  75.5814 284.5322 15.06393965114809","SEMIMAJOR_AXIS":"6925.367","PERIAPSIS":"546.314","EPOCH":"2022-09-11T09:57:45.454752","MEAN_MOTION_DDOT":"0.0000000000000","TIME_SYSTEM":"UTC","RA_OF_ASC_NODE":"261.5629","OBJECT_ID":"2020-057AX","COUNTRY_CODE":"US","APOAPSIS":"548.150","SITE":"AFETR","LAUNCH_DATE":"2020-08-18"},{"OBJECT_ID":"2020-057AY","RA_OF_ASC_NODE":"238.2758","SITE":"AFETR","LAUNCH_DATE":"2020-08-18","COUNTRY_CODE":"US","APOAPSIS":"548.340","EPHEMERIS_TYPE":"0","OBJECT_TYPE":"PAYLOAD","REV_AT_EPOCH":"11518","TIME_SYSTEM":"UTC","TLE_LINE2":"2 46163  53.0551 238.2758 0001601  76.5344 283.5823 15.06394230115183","TLE_LINE1":"1 46163U 20057AY  22255.14307987 -.00000206  00000-0  50583-5 0  9994","PERIAPSIS":"546.122","SEMIMAJOR_AXIS":"6925.366","MEAN_MOTION_DDOT":"0.0000000000000","EPOCH":"2022-09-12T03:26:02.100768","GP_ID":"212360601","REF_FRAME":"TEME","ECCENTRICITY":"0.00016010","RCS_SIZE":"LARGE","PERIOD":"95.593","CENTER_NAME":"EARTH","MEAN_ELEMENT_THEORY":"SGP4","FILE":"3569393","NORAD_CAT_ID":"46163","ARG_OF_PERICENTER":"76.5344","BSTAR":"0.00000505830000","CLASSIFICATION_TYPE":"U","MEAN_MOTION":"15.06394230","INCLINATION":"53.0551","MEAN_MOTION_DOT":"-0.00000206","MEAN_ANOMALY":"283.5823","ELEMENT_SET_NO":"999","DECAY_DATE":null,"OBJECT_NAME":"STARLINK-1610"},{"MEAN_MOTION":"15.06398822","INCLINATION":"53.0535","MEAN_MOTION_DOT":"0.00000478","MEAN_ANOMALY":"292.0379","DECAY_DATE":null,"ELEMENT_SET_NO":"999","OBJECT_NAME":"STARLINK-1612","ECCENTRICITY":"0.00015660","GP_ID":"212360599","REF_FRAME":"TEME","RCS_SIZE":"LARGE","PERIOD":"95.592","CENTER_NAME":"EARTH","MEAN_ELEMENT_THEORY":"SGP4","FILE":"3569393","NORAD_CAT_ID":"46164","CLASSIFICATION_TYPE":"U","BSTAR":"0.00005098100000","ARG_OF_PERICENTER":"68.0776","EPHEMERIS_TYPE":"0","OBJECT_TYPE":"PAYLOAD","REV_AT_EPOCH":"11518","TIME_SYSTEM":"UTC","TLE_LINE1":"1 46164U 20057AZ  22255.13938699  .00000478  00000-0  50981-4 0  9995","TLE_LINE2":"2 46164  53.0535 238.2860 0001566  68.0776 292.0379 15.06398822115187","EPOCH":"2022-09-12T03:20:43.035936","PERIAPSIS":"546.133","SEMIMAJOR_AXIS":"6925.352","MEAN_MOTION_DDOT":"0.0000000000000","OBJECT_ID":"2020-057AZ","RA_OF_ASC_NODE":"238.2860","SITE":"AFETR","LAUNCH_DATE":"2020-08-18","COUNTRY_CODE":"US","APOAPSIS":"548.302"},{"REV_AT_EPOCH":"11473","OBJECT_TYPE":"PAYLOAD","EPHEMERIS_TYPE":"0","SEMIMAJOR_AXIS":"6897.053","PERIAPSIS":"517.576","EPOCH":"2022-09-12T02:07:01.017408","MEAN_MOTION_DDOT":"0.0000000000000","TLE_LINE2":"2 46165  53.0520 270.1910 0001945  92.2653 267.8562 15.15679665114738","TLE_LINE1":"1 46165U 20057BA  22255.08820622  .00013731  00000-0  72752-3 0  9991","TIME_SYSTEM":"UTC","RA_OF_ASC_NODE":"270.1910","OBJECT_ID":"2020-057BA","APOAPSIS":"520.259","COUNTRY_CODE":"US","LAUNCH_DATE":"2020-08-18","SITE":"AFETR","MEAN_ANOMALY":"267.8562","MEAN_MOTION_DOT":"0.00013731","MEAN_MOTION":"15.15679665","INCLINATION":"53.0520","OBJECT_NAME":"STARLINK-1613","DECAY_DATE":null,"ELEMENT_SET_NO":"999","PERIOD":"95.007","RCS_SIZE":"LARGE","CENTER_NAME":"EARTH","REF_FRAME":"TEME","GP_ID":"212360607","ECCENTRICITY":"0.00019450","ARG_OF_PERICENTER":"92.2653","BSTAR":"0.00072752000000","CLASSIFICATION_TYPE":"U","FILE":"3569394","NORAD_CAT_ID":"46165","MEAN_ELEMENT_THEORY":"SGP4"}];
